{
  "type": "FeatureCollection",
  "features": [
    {
      "type": "Feature",
      "properties": {
        "norad_id": 43783,
        "name": "KAZSTSAT",
        "group": "resource",
        "lat": 75.58713175539394,
        "lon": 4.218742531084223,
        "alt_km": 565.973405389901,
        "timestamp": "2025-12-26T05:31:12.157601+00:00",
        "meta_object_name": "KAZSTSAT",
        "meta_object_id": "2018-099AB",
        "meta_epoch": "2025-12-25T16:21:41.281920",
        "meta_mean_motion": 14.99372858,
        "meta_eccentricity": 0.00063462,
        "meta_inclination": 97.4512,
        "meta_ra_of_asc_node": 34.3083,
        "meta_arg_of_pericenter": 272.4562,
        "meta_mean_anomaly": 87.5935,
        "meta_ephemeris_type": 0,
        "meta_classification_type": "U",
        "meta_norad_cat_id": 43783,
        "meta_element_set_no": 999,
        "meta_rev_at_epoch": 38530,
        "meta_bstar": 6.2859859e-05,
        "meta_mean_motion_dot": 7.13e-06,
        "meta_mean_motion_ddot": 0,
        "tle_line1": "1 43783U 18099AB  25359.68172780  .00000713  00000+0  62860-4 0  9991",
        "tle_line2": "2 43783  97.4512  34.3083 0006346 272.4562  87.5935 14.99372858385305"
      },
      "geometry": {
        "type": "Point",
        "coordinates": [
          4.218742531084223,
          75.58713175539394
        ]
      }
    },
    {
      "type": "Feature",
      "properties": {
        "norad_id": 43831,
        "name": "SAUDISAT 5A",
        "group": "resource",
        "lat": -30.796154614450604,
        "lon": 64.5624196215644,
        "alt_km": 491.21773280239086,
        "timestamp": "2025-12-26T05:31:12.157611+00:00",
        "meta_object_name": "SAUDISAT 5A",
        "meta_object_id": "2018-102A",
        "meta_epoch": "2025-12-25T23:21:36.131904",
        "meta_mean_motion": 15.25817593,
        "meta_eccentricity": 0.00109888,
        "meta_inclination": 97.333,
        "meta_ra_of_asc_node": 59.9086,
        "meta_arg_of_pericenter": 34.9428,
        "meta_mean_anomaly": 325.253,
        "meta_ephemeris_type": 0,
        "meta_classification_type": "U",
        "meta_norad_cat_id": 43831,
        "meta_element_set_no": 999,
        "meta_rev_at_epoch": 38924,
        "meta_bstar": 0.00025489292,
        "meta_mean_motion_dot": 6.457e-05,
        "meta_mean_motion_ddot": 0,
        "tle_line1": "1 43831U 18102A   25359.97333486  .00006457  00000+0  25489-3 0  9990",
        "tle_line2": "2 43831  97.3330  59.9086 0010988  34.9428 325.2530 15.25817593389241"
      },
      "geometry": {
        "type": "Point",
        "coordinates": [
          64.5624196215644,
          -30.796154614450604
        ]
      }
    },
    {
      "type": "Feature",
      "properties": {
        "norad_id": 43833,
        "name": "SAUDISAT 5B",
        "group": "resource",
        "lat": 37.8745131078351,
        "lon": 57.167178971638634,
        "alt_km": 476.5303018321247,
        "timestamp": "2025-12-26T05:31:12.157621+00:00",
        "meta_object_name": "SAUDISAT 5B",
        "meta_object_id": "2018-102C",
        "meta_epoch": "2025-12-25T23:03:32.643072",
        "meta_mean_motion": 15.26162861,
        "meta_eccentricity": 0.00117429,
        "meta_inclination": 97.3425,
        "meta_ra_of_asc_node": 62.6586,
        "meta_arg_of_pericenter": 37.0179,
        "meta_mean_anomaly": 323.1868,
        "meta_ephemeris_type": 0,
        "meta_classification_type": "U",
        "meta_norad_cat_id": 43833,
        "meta_element_set_no": 999,
        "meta_rev_at_epoch": 38935,
        "meta_bstar": 0.00022589987,
        "meta_mean_motion_dot": 5.775e-05,
        "meta_mean_motion_ddot": 0,
        "tle_line1": "1 43833U 18102C   25359.96079448  .00005775  00000+0  22590-3 0  9998",
        "tle_line2": "2 43833  97.3425  62.6586 0011742  37.0179 323.1868 15.26162861389355"
      },
      "geometry": {
        "type": "Point",
        "coordinates": [
          57.167178971638634,
          37.8745131078351
        ]
      }
    },
    {
      "type": "Feature",
      "properties": {
        "norad_id": 44622,
        "name": "GAOFEN-10R",
        "group": "resource",
        "lat": 43.3454583741532,
        "lon": -59.86640499117073,
        "alt_km": 613.1892723261244,
        "timestamp": "2025-12-26T05:31:12.157632+00:00",
        "meta_object_name": "GAOFEN-10R",
        "meta_object_id": "2019-066A",
        "meta_epoch": "2025-12-25T22:50:42.151200",
        "meta_mean_motion": 14.8283579,
        "meta_eccentricity": 0.00069325,
        "meta_inclination": 98.0296,
        "meta_ra_of_asc_node": 307.511,
        "meta_arg_of_pericenter": 2.7605,
        "meta_mean_anomaly": 357.3645,
        "meta_ephemeris_type": 0,
        "meta_classification_type": "U",
        "meta_norad_cat_id": 44622,
        "meta_element_set_no": 999,
        "meta_rev_at_epoch": 33670,
        "meta_bstar": 0.00021169332,
        "meta_mean_motion_dot": 1.659e-05,
        "meta_mean_motion_ddot": 0,
        "tle_line1": "1 44622U 19066A   25359.95187675  .00001659  00000+0  21169-3 0  9994",
        "tle_line2": "2 44622  98.0296 307.5110 0006932   2.7605 357.3645 14.82835790336700"
      },
      "geometry": {
        "type": "Point",
        "coordinates": [
          -59.86640499117073,
          43.3454583741532
        ]
      }
    },
    {
      "type": "Feature",
      "properties": {
        "norad_id": 44804,
        "name": "CARTOSAT-3",
        "group": "resource",
        "lat": 8.227628991063439,
        "lon": -119.27464354294595,
        "alt_km": 516.1748962222409,
        "timestamp": "2025-12-26T05:31:12.157643+00:00",
        "meta_object_name": "CARTOSAT-3",
        "meta_object_id": "2019-081A",
        "meta_epoch": "2025-12-25T22:26:42.961344",
        "meta_mean_motion": 15.19260006,
        "meta_eccentricity": 0.00136252,
        "meta_inclination": 97.4562,
        "meta_ra_of_asc_node": 59.3493,
        "meta_arg_of_pericenter": 41.5771,
        "meta_mean_anomaly": 318.6497,
        "meta_ephemeris_type": 0,
        "meta_classification_type": "U",
        "meta_norad_cat_id": 44804,
        "meta_element_set_no": 999,
        "meta_rev_at_epoch": 33716,
        "meta_bstar": 0.00016898006,
        "meta_mean_motion_dot": 3.501e-05,
        "meta_mean_motion_ddot": 0,
        "tle_line1": "1 44804U 19081A   25359.93521946  .00003501  00000+0  16898-3 0  9995",
        "tle_line2": "2 44804  97.4562  59.3493 0013625  41.5771 318.6497 15.19260006337168"
      },
      "geometry": {
        "type": "Point",
        "coordinates": [
          -119.27464354294595,
          8.227628991063439
        ]
      }
    },
    {
      "type": "Feature",
      "properties": {
        "norad_id": 44819,
        "name": "GAOFEN-12 01",
        "group": "resource",
        "lat": -26.2940797985762,
        "lon": -177.7329410309762,
        "alt_km": 631.559226847231,
        "timestamp": "2025-12-26T05:31:12.157653+00:00",
        "meta_object_name": "GAOFEN-12 01",
        "meta_object_id": "2019-082A",
        "meta_epoch": "2025-12-25T23:43:29.811936",
        "meta_mean_motion": 14.80672257,
        "meta_eccentricity": 0.00022823,
        "meta_inclination": 97.8125,
        "meta_ra_of_asc_node": 5.9218,
        "meta_arg_of_pericenter": 175.9733,
        "meta_mean_anomaly": 184.1498,
        "meta_ephemeris_type": 0,
        "meta_classification_type": "U",
        "meta_norad_cat_id": 44819,
        "meta_element_set_no": 999,
        "meta_rev_at_epoch": 32846,
        "meta_bstar": 7.0851199e-05,
        "meta_mean_motion_dot": 4.94e-06,
        "meta_mean_motion_ddot": 0,
        "tle_line1": "1 44819U 19082A   25359.98853949  .00000494  00000+0  70851-4 0  9996",
        "tle_line2": "2 44819  97.8125   5.9218 0002282 175.9733 184.1498 14.80672257328464"
      },
      "geometry": {
        "type": "Point",
        "coordinates": [
          -177.7329410309762,
          -26.2940797985762
        ]
      }
    },
    {
      "type": "Feature",
      "properties": {
        "norad_id": 44873,
        "name": "CSG-1",
        "group": "resource",
        "lat": 29.281084278510967,
        "lon": 176.8964521476253,
        "alt_km": 620.5334163208217,
        "timestamp": "2025-12-26T05:31:12.157663+00:00",
        "meta_object_name": "CSG-1",
        "meta_object_id": "2019-092A",
        "meta_epoch": "2025-12-25T22:54:21.614976",
        "meta_mean_motion": 14.8216176,
        "meta_eccentricity": 0.00014562,
        "meta_inclination": 97.8805,
        "meta_ra_of_asc_node": 181.0796,
        "meta_arg_of_pericenter": 85.2924,
        "meta_mean_anomaly": 274.8455,
        "meta_ephemeris_type": 0,
        "meta_classification_type": "U",
        "meta_norad_cat_id": 44873,
        "meta_element_set_no": 999,
        "meta_rev_at_epoch": 32581,
        "meta_bstar": 8.3029423e-05,
        "meta_mean_motion_dot": 6.09e-06,
        "meta_mean_motion_ddot": 0,
        "tle_line1": "1 44873U 19092A   25359.95441684  .00000609  00000+0  83029-4 0  9992",
        "tle_line2": "2 44873  97.8805 181.0796 0001456  85.2924 274.8455 14.82161760325813"
      },
      "geometry": {
        "type": "Point",
        "coordinates": [
          176.8964521476253,
          29.281084278510967
        ]
      }
    }
  ]
}